STARLINK-3235           
1 50200U 21125AW  26068.74780376 -.00000247  00000+0  25367-5 0  9993
2 50200  53.2163 238.8203 0001182 101.1932 258.9193 15.08839601236755
LEMUR-2-MARHISYAM       
1 60536U 24149BW  26068.74036894  .00013075  00000+0  82973-3 0  9990
2 60536  97.6912 151.2662 0003578 107.3271 252.8349 15.09015520 85478
